{
  "type": "FeatureCollection",
  "features": [
    {
      "type": "Feature",
      "properties": {
        "norad_id": 36036,
        "name": "SMOS",
        "group": "resource",
        "lat": 10.69672916101025,
        "lon": 175.65211217297679,
        "alt_km": 760.5156309976583,
        "timestamp": "2025-12-18T07:01:54.244437+00:00",
        "meta_object_name": "SMOS",
        "meta_object_id": "2009-059A",
        "meta_epoch": "2025-12-17T12:38:04.074720",
        "meta_mean_motion": 14.39745469,
        "meta_eccentricity": 0.00010941,
        "meta_inclination": 98.438,
        "meta_ra_of_asc_node": 176.504,
        "meta_arg_of_pericenter": 82.4304,
        "meta_mean_anomaly": 277.7008,
        "meta_ephemeris_type": 0,
        "meta_classification_type": "U",
        "meta_norad_cat_id": 36036,
        "meta_element_set_no": 999,
        "meta_rev_at_epoch": 84731,
        "meta_bstar": 0.00012015761,
        "meta_mean_motion_dot": 3.33e-06,
        "meta_mean_motion_ddot": 0,
        "tle_line1": "1 36036U 09059A   25351.52643605  .00000333  00000+0  12016-3 0  9999",
        "tle_line2": "2 36036  98.4380 176.5040 0001094  82.4304 277.7008 14.39745469847316"
      },
      "geometry": {
        "type": "Point",
        "coordinates": [
          175.65211217297679,
          10.69672916101025
        ]
      }
    },
    {
      "type": "Feature",
      "properties": {
        "norad_id": 36110,
        "name": "YAOGAN-7",
        "group": "resource",
        "lat": -53.378496346123896,
        "lon": 43.081216794755356,
        "alt_km": 629.0525733357917,
        "timestamp": "2025-12-18T07:01:54.244447+00:00",
        "meta_object_name": "YAOGAN-7",
        "meta_object_id": "2009-069A",
        "meta_epoch": "2025-12-17T21:50:54.408480",
        "meta_mean_motion": 14.77740019,
        "meta_eccentricity": 0.00233304,
        "meta_inclination": 98.0297,
        "meta_ra_of_asc_node": 233.6487,
        "meta_arg_of_pericenter": 263.6435,
        "meta_mean_anomaly": 96.2118,
        "meta_ephemeris_type": 0,
        "meta_classification_type": "U",
        "meta_norad_cat_id": 36110,
        "meta_element_set_no": 999,
        "meta_rev_at_epoch": 86285,
        "meta_bstar": 7.9642768e-05,
        "meta_mean_motion_dot": 5.2e-06,
        "meta_mean_motion_ddot": 0,
        "tle_line1": "1 36110U 09069A   25351.91035195  .00000520  00000+0  79643-4 0  9993",
        "tle_line2": "2 36110  98.0297 233.6487 0023330 263.6435  96.2118 14.77740019862857"
      },
      "geometry": {
        "type": "Point",
        "coordinates": [
          43.081216794755356,
          -53.378496346123896
        ]
      }
    },
    {
      "type": "Feature",
      "properties": {
        "norad_id": 36605,
        "name": "TANDEM-X",
        "group": "resource",
        "lat": -45.9272272162884,
        "lon": 169.83022741387117,
        "alt_km": 516.3129103972469,
        "timestamp": "2025-12-18T07:01:54.244458+00:00",
        "meta_object_name": "TANDEM-X",
        "meta_object_id": "2010-030A",
        "meta_epoch": "2025-12-17T14:13:48.411552",
        "meta_mean_motion": 15.19149806,
        "meta_eccentricity": 0.00018481,
        "meta_inclination": 97.4443,
        "meta_ra_of_asc_node": 356.9023,
        "meta_arg_of_pericenter": 79.8054,
        "meta_mean_anomaly": 280.3389,
        "meta_ephemeris_type": 0,
        "meta_classification_type": "U",
        "meta_norad_cat_id": 36605,
        "meta_element_set_no": 999,
        "meta_rev_at_epoch": 85907,
        "meta_bstar": 4.6537622e-05,
        "meta_mean_motion_dot": 9.1e-06,
        "meta_mean_motion_ddot": 0,
        "tle_line1": "1 36605U 10030A   25351.59292143  .00000910  00000+0  46538-4 0  9994",
        "tle_line2": "2 36605  97.4443 356.9023 0001848  79.8054 280.3389 15.19149806859071"
      },
      "geometry": {
        "type": "Point",
        "coordinates": [
          169.83022741387117,
          -45.9272272162884
        ]
      }
    },
    {
      "type": "Feature",
      "properties": {
        "norad_id": 36795,
        "name": "CARTOSAT-2B",
        "group": "resource",
        "lat": -1.5396760414135724,
        "lon": -139.0675087433762,
        "alt_km": 641.2683102119681,
        "timestamp": "2025-12-18T07:01:54.244468+00:00",
        "meta_object_name": "CARTOSAT-2B",
        "meta_object_id": "2010-035A",
        "meta_epoch": "2025-12-17T23:43:08.273280",
        "meta_mean_motion": 14.78733205,
        "meta_eccentricity": 0.0012916,
        "meta_inclination": 97.7853,
        "meta_ra_of_asc_node": 40.8484,
        "meta_arg_of_pericenter": 60.9349,
        "meta_mean_anomaly": 299.3154,
        "meta_ephemeris_type": 0,
        "meta_classification_type": "U",
        "meta_norad_cat_id": 36795,
        "meta_element_set_no": 999,
        "meta_rev_at_epoch": 83307,
        "meta_bstar": 0.00012445652,
        "meta_mean_motion_dot": 8.65e-06,
        "meta_mean_motion_ddot": 0,
        "tle_line1": "1 36795U 10035A   25351.98829020  .00000865  00000+0  12446-3 0  9991",
        "tle_line2": "2 36795  97.7853  40.8484 0012916  60.9349 299.3154 14.78733205833073"
      },
      "geometry": {
        "type": "Point",
        "coordinates": [
          -139.0675087433762,
          -1.5396760414135724
        ]
      }
    },
    {
      "type": "Feature",
      "properties": {
        "norad_id": 36834,
        "name": "YAOGAN-10",
        "group": "resource",
        "lat": 18.804755752681253,
        "lon": 9.357440315522556,
        "alt_km": 614.5905396081816,
        "timestamp": "2025-12-18T07:01:54.244479+00:00",
        "meta_object_name": "YAOGAN-10",
        "meta_object_id": "2010-038A",
        "meta_epoch": "2025-12-17T23:15:18.504288",
        "meta_mean_motion": 14.84627265,
        "meta_eccentricity": 0.00013781,
        "meta_inclination": 97.9139,
        "meta_ra_of_asc_node": 11.7508,
        "meta_arg_of_pericenter": 82.2697,
        "meta_mean_anomaly": 6.1042,
        "meta_ephemeris_type": 0,
        "meta_classification_type": "U",
        "meta_norad_cat_id": 36834,
        "meta_element_set_no": 999,
        "meta_rev_at_epoch": 83031,
        "meta_bstar": 0.00020818132,
        "meta_mean_motion_dot": 1.706e-05,
        "meta_mean_motion_ddot": 0,
        "tle_line1": "1 36834U 10038A   25351.96896417  .00001706  00000+0  20818-3 0  9997",
        "tle_line2": "2 36834  97.9139  11.7508 0001378  82.2697   6.1042 14.84627265830312"
      },
      "geometry": {
        "type": "Point",
        "coordinates": [
          9.357440315522556,
          18.804755752681253
        ]
      }
    },
    {
      "type": "Feature",
      "properties": {
        "norad_id": 37216,
        "name": "COSMO-SKYMED 4",
        "group": "resource",
        "lat": -71.36588899755054,
        "lon": -30.719256249701044,
        "alt_km": 630.8050367604756,
        "timestamp": "2025-12-18T07:01:54.244489+00:00",
        "meta_object_name": "COSMO-SKYMED 4",
        "meta_object_id": "2010-060A",
        "meta_epoch": "2025-12-17T23:24:45.129312",
        "meta_mean_motion": 14.82149852,
        "meta_eccentricity": 0.00013813,
        "meta_inclination": 97.8801,
        "meta_ra_of_asc_node": 173.2194,
        "meta_arg_of_pericenter": 80.32,
        "meta_mean_anomaly": 279.8169,
        "meta_ephemeris_type": 0,
        "meta_classification_type": "U",
        "meta_norad_cat_id": 37216,
        "meta_element_set_no": 999,
        "meta_rev_at_epoch": 81772,
        "meta_bstar": 9.72367e-06,
        "meta_mean_motion_dot": 2.5e-07,
        "meta_mean_motion_ddot": 0,
        "tle_line1": "1 37216U 10060A   25351.97552233  .00000025  00000+0  97237-5 0  9997",
        "tle_line2": "2 37216  97.8801 173.2194 0001381  80.3200 279.8169 14.82149852817728"
      },
      "geometry": {
        "type": "Point",
        "coordinates": [
          -30.719256249701044,
          -71.36588899755054
        ]
      }
    },
    {
      "type": "Feature",
      "properties": {
        "norad_id": 37387,
        "name": "RESOURCESAT-2",
        "group": "resource",
        "lat": 81.19621893068471,
        "lon": -31.285001792133745,
        "alt_km": 810.3750726501185,
        "timestamp": "2025-12-18T07:01:54.244500+00:00",
        "meta_object_name": "RESOURCESAT-2",
        "meta_object_id": "2011-015A",
        "meta_epoch": "2025-12-17T20:28:38.554464",
        "meta_mean_motion": 14.21599276,
        "meta_eccentricity": 0.00061994,
        "meta_inclination": 98.7872,
        "meta_ra_of_asc_node": 55.382,
        "meta_arg_of_pericenter": 29.0315,
        "meta_mean_anomaly": 331.1206,
        "meta_ephemeris_type": 0,
        "meta_classification_type": "U",
        "meta_norad_cat_id": 37387,
        "meta_element_set_no": 999,
        "meta_rev_at_epoch": 76041,
        "meta_bstar": 7.2614789e-05,
        "meta_mean_motion_dot": 1.15e-06,
        "meta_mean_motion_ddot": 0,
        "tle_line1": "1 37387U 11015A   25351.85322401  .00000115  00000+0  72615-4 0  9998",
        "tle_line2": "2 37387  98.7872  55.3820 0006199  29.0315 331.1206 14.21599276760419"
      },
      "geometry": {
        "type": "Point",
        "coordinates": [
          -31.285001792133745,
          81.19621893068471
        ]
      }
    }
  ]
}